NORAD_CAT_ID,OBJECT_NAME,OBJECT_TYPE,EPOCH,MEAN_MOTION,ECCENTRICITY,INCLINATION,RA_OF_ASC_NODE,ARG_OF_PERICENTER,MEAN_ANOMALY,BSTAR,MEAN_MOTION_DOT,MEAN_MOTION_DDOT,TLE_LINE0,TLE_LINE1,TLE_LINE2,SEMIMAJOR_AXIS,PERIOD,APOGEE,PERIGEE,DECAYED
53799.0,STARLINK-4710,PAYLOAD,2024-06-04 00:34:00,15.08858196,0.0001108,53.2178,273.7226,93.8991,266.2127,0.00042494,6.485e-05,0.0,0 STARLINK-4710,1 53799U 22111AC  24156.02361193  .00006485  00000-0  42494-3 0  9992,2 53799  53.2178 273.7226 0001108  93.8991 266.2127 15.08858196 95831,6917.825,95.436,540.456,538.923,0.0
53799.0,STARLINK-4710,PAYLOAD,2024-06-04 11:41:42,15.08837932,0.0001237,53.2157,271.6406,92.8477,267.2657,-2.4204e-05,-6.73e-06,0.0,0 STARLINK-4710,1 53799U 22111AC  24156.48729938 -.00000673  00000-0 -24204-4 0  9992,2 53799  53.2157 271.6406 0001237  92.8477 267.2657 15.08837932 95908,6917.887,95.438,540.607,538.896,0.0
53799.0,STARLINK-4710,PAYLOAD,2024-06-04 14:52:28,15.08843529,0.0001262,53.2169,271.0487,100.1447,259.9688,0.00010387,1.366e-05,0.0,0 STARLINK-4710,1 53799U 22111AC  24156.61977866  .00001366  00000-0  10387-3 0  9996,2 53799  53.2169 271.0487 0001262 100.1447 259.9688 15.08843529 96735,6917.87,95.437,540.608,538.862,0.0
53799.0,STARLINK-4710,PAYLOAD,2024-06-05 00:24:47,15.08852413,0.0001055,53.2148,269.2587,73.3044,286.8064,0.00029006,4.333e-05,0.0,0 STARLINK-4710,1 53799U 22111AC  24157.01721344  .00004333  00000-0  29006-3 0  9994,2 53799  53.2148 269.2587 0001055  73.3044 286.8064 15.08852413 95981,6917.842,95.437,540.437,538.978,0.0
53799.0,STARLINK-4710,PAYLOAD,2024-06-05 11:32:30,15.08828826,0.0001535,53.2155,267.1794,89.9381,270.1787,-0.00016306,-2.881e-05,0.0,0 STARLINK-4710,1 53799U 22111AC  24157.48090372 -.00002881  00000-0 -16306-3 0  9992,2 53799  53.2155 267.1794 0001535  89.9381 270.1787 15.08828826 96054,6917.915,95.438,540.841,538.718,0.0
53799.0,STARLINK-4710,PAYLOAD,2024-06-06 00:15:34,15.08843269,0.0001137,53.2168,264.7982,76.8397,283.2722,0.00031084,4.663e-05,0.0,0 STARLINK-4710,1 53799U 22111AC  24158.01082044  .00004663  00000-0  31084-3 0  9997,2 53799  53.2168 264.7982 0001137  76.8397 283.2722 15.08843269 96131,6917.87,95.437,540.522,538.949,0.0
53799.0,STARLINK-4710,PAYLOAD,2024-06-06 11:23:17,15.08839203,0.0001711,53.2165,262.7176,81.0942,279.0243,0.00021968,3.21e-05,0.0,0 STARLINK-4710,1 53799U 22111AC  24158.47450534  .00003210  00000-0  21968-3 0  9997,2 53799  53.2165 262.7176 0001711  81.0942 279.0243 15.08839203 96205,6917.883,95.438,540.931,538.564,0.0
53799.0,STARLINK-4710,PAYLOAD,2024-06-07 16:00:13,15.08844379,0.0001455,53.2161,257.3674,86.8367,273.2792,0.00025516,3.776e-05,0.0,0 STARLINK-4710,1 53799U 22111AC  24159.66682511  .00003776  00000-0  25516-3 0  9991,2 53799  53.2161 257.3674 0001455  86.8367 273.2792 15.08844379 96387,6917.867,95.437,540.739,538.725,0.0
53799.0,STARLINK-4710,PAYLOAD,2024-06-08 12:40:14,15.08848036,0.0001961,53.2146,253.4971,106.6841,253.4366,0.0002312,3.394e-05,0.0,0 STARLINK-4710,1 53799U 22111AC  24160.52794113  .00003394  00000-0  23120-3 0  9995,2 53799  53.2146 253.4971 0001961 106.6841 253.4366 15.08848036 97323,6917.856,95.437,541.077,538.364,0.0
53799.0,STARLINK-4710,PAYLOAD,2024-06-08 17:26:23,15.08855132,0.0001515,53.2172,252.6088,95.0748,265.0417,0.00027286,4.059e-05,0.0,0 STARLINK-4710,1 53799U 22111AC  24160.72665773  .00004059  00000-0  27286-3 0  9992,2 53799  53.2172 252.6088 0001515  95.0748 265.0417 15.08855132 96548,6917.834,95.437,540.747,538.651,0.0
53799.0,STARLINK-4710,PAYLOAD,2024-06-09 12:31:01,15.08827365,0.0001599,53.2175,249.0408,111.522,248.5943,-0.00018358,-3.207e-05,0.0,0 STARLINK-4710,1 53799U 22111AC  24161.52154933 -.00003207  00000-0 -18358-3 0  9998,2 53799  53.2175 249.0408 0001599 111.5220 248.5943 15.08827365 96668,6917.919,95.438,540.89,538.678,0.0
53799.0,STARLINK-4710,PAYLOAD,2024-06-09 15:41:48,15.0882992,0.0001636,53.2169,248.4454,109.6769,250.4399,-8.9302e-05,-1.709e-05,0.0,0 STARLINK-4710,1 53799U 22111AC  24161.65403024 -.00001709  00000-0 -89302-4 0  9993,2 53799  53.2169 248.4454 0001636 109.6769 250.4399 15.08829920 97491,6917.911,95.438,540.908,538.644,0.0
53799.0,STARLINK-4710,PAYLOAD,2024-06-10 06:00:16,15.08843175,0.0001657,53.2165,245.7683,119.5427,240.573,0.00027093,4.027e-05,0.0,0 STARLINK-4710,1 53799U 22111AC  24162.25018755  .00004027  00000-0  27093-3 0  9995,2 53799  53.2165 245.7683 0001657 119.5427 240.5730 15.08843175 96772,6917.871,95.437,540.882,538.589,0.0
53799.0,STARLINK-4710,PAYLOAD,2024-06-10 12:21:49,15.08849965,0.0001364,53.216,244.5823,98.8025,261.3122,0.00098659,0.00015453,0.0,0 STARLINK-4710,1 53799U 22111AC  24162.51515059  .00015453  00000-0  98659-3 0  9994,2 53799  53.2160 244.5823 0001364  98.8025 261.3122 15.08849965 97622,6917.85,95.437,540.659,538.771,0.0
53799.0,STARLINK-4710,PAYLOAD,2024-06-10 21:54:07,15.08870547,0.0001338,53.2161,242.7979,97.8328,262.2816,0.001273,0.00020047,0.0,0 STARLINK-4710,1 53799U 22111AC  24162.91258414  .00020047  00000-0  12730-2 0  9997,2 53799  53.2161 242.7979 0001338  97.8328 262.2816 15.08870547 97687,6917.787,95.436,540.578,538.726,0.0
53799.0,STARLINK-4710,PAYLOAD,2024-06-11 12:12:35,15.08851937,0.0001227,53.2157,240.1218,87.1076,273.0056,0.00052677,8.108e-05,0.0,0 STARLINK-4710,1 53799U 22111AC  24163.50874500  .00008108  00000-0  52677-3 0  9992,2 53799  53.2157 240.1218 0001227  87.1076 273.0056 15.08851937 97777,6917.844,95.437,540.558,538.86,0.0
53799.0,STARLINK-4710,PAYLOAD,2024-06-12 05:41:50,15.08840944,0.0001442,53.2163,236.8548,103.318,256.7973,0.00028216,4.206e-05,0.0,0 STARLINK-4710,1 53799U 22111AC  24164.23738856  .00004206  00000-0  28216-3 0  9993,2 53799  53.2163 236.8548 0001442 103.3180 256.7973 15.08840944 97073,6917.878,95.437,540.74,538.745,0.0
53799.0,STARLINK-4710,PAYLOAD,2024-06-12 12:03:23,15.08829567,0.0001302,53.2165,235.6631,94.9023,265.2118,-0.00016085,-2.846e-05,0.0,0 STARLINK-4710,1 53799U 22111AC  24164.50235318 -.00002846  00000-0 -16085-3 0  9999,2 53799  53.2165 235.6631 0001302  94.9023 265.2118 15.08829567 97110,6917.912,95.438,540.678,538.877,0.0
53799.0,STARLINK-4710,PAYLOAD,2024-06-13 11:54:08,15.08866608,0.0001032,53.2154,231.1997,79.7246,280.3863,-0.00060666,-9.937e-05,0.0,0 STARLINK-4710,1 53799U 22111AC  24165.49593694 -.00009937  00000-0 -60666-3 0  9994,2 53799  53.2154 231.1997 0001032  79.7246 280.3863 15.08866608 97260,6917.799,95.436,540.378,538.95,0.0
53799.0,STARLINK-4710,PAYLOAD,2024-06-14 11:44:57,15.08839392,0.0001143,53.2156,226.7391,80.9878,279.1244,0.00018482,2.655e-05,0.0,0 STARLINK-4710,1 53799U 22111AC  24166.48955411  .00002655  00000-0  18482-3 0  9990,2 53799  53.2156 226.7391 0001143  80.9878 279.1244 15.08839392 98224,6917.882,95.438,540.538,538.957,0.0
53799.0,STARLINK-4710,PAYLOAD,2024-06-14 21:17:15,15.08847135,0.0001168,53.2155,224.9555,80.8957,279.2167,0.00021469,3.131e-05,0.0,0 STARLINK-4710,1 53799U 22111AC  24166.88698968  .00003131  00000-0  21469-3 0  9994,2 53799  53.2155 224.9555 0001168  80.8957 279.2167 15.08847135 98284,6917.859,95.437,540.532,538.916,0.0
53799.0,STARLINK-4710,PAYLOAD,2024-06-15 13:11:07,15.08849363,0.0001203,53.2152,221.9807,83.5414,276.5715,0.000219,3.2e-05,0.0,0 STARLINK-4710,1 53799U 22111AC  24167.54938848  .00003200  00000-0  21900-3 0  9999,2 53799  53.2152 221.9807 0001203  83.5414 276.5715 15.08849363 97571,6917.852,95.437,540.549,538.885,0.0
53799.0,STARLINK-4710,PAYLOAD,2024-06-15 21:08:02,15.08853936,0.0001157,53.2153,220.4942,91.5743,268.5382,0.00034376,5.189e-05,0.0,0 STARLINK-4710,1 53799U 22111AC  24167.88058597  .00005189  00000-0  34376-3 0  9999,2 53799  53.2153 220.4942 0001157  91.5743 268.5382 15.08853936 98436,6917.838,95.437,540.503,538.902,0.0
53799.0,STARLINK-4710,PAYLOAD,2024-06-16 09:51:08,15.08843737,0.0001249,53.2155,218.115,85.097,275.0165,0.00017296,2.466e-05,0.0,0 STARLINK-4710,1 53799U 22111AC  24168.41050981  .00002466  00000-0  17296-3 0  9995,2 53799  53.2155 218.1150 0001249  85.0970 275.0165 15.08843737 98514,6917.869,95.437,540.598,538.87,0.0
53799.0,STARLINK-4710,PAYLOAD,2024-06-17 09:41:55,15.08843532,0.0001266,53.2152,213.6534,87.3252,272.7885,0.00021091,3.071e-05,0.0,0 STARLINK-4710,1 53799U 22111AC  24169.40411264  .00003071  00000-0  21091-3 0  9991,2 53799  53.2152 213.6534 0001266  87.3252 272.7885 15.08843532 98666,6917.87,95.437,540.61,538.859,0.0
53799.0,STARLINK-4710,PAYLOAD,2024-06-18 03:11:09,15.08839509,0.0001327,53.2157,210.3826,89.5088,270.6056,0.00017977,2.574e-05,0.0,0 STARLINK-4710,1 53799U 22111AC  24170.13275455  .00002574  00000-0  17977-3 0  9998,2 53799  53.2157 210.3826 0001327  89.5088 270.6056 15.08839509 97966,6917.882,95.438,540.665,538.829,0.0
53799.0,STARLINK-4710,PAYLOAD,2024-06-18 09:32:42,15.08841997,0.0001259,53.2154,209.1934,88.0224,272.0912,0.00018232,2.615e-05,0.0,0 STARLINK-4710,1 53799U 22111AC  24170.39771334  .00002615  00000-0  18232-3 0  9994,2 53799  53.2154 209.1934 0001259  88.0224 272.0912 15.08841997 98815,6917.874,95.437,540.61,538.868,0.0
53799.0,STARLINK-4710,PAYLOAD,2024-06-18 19:05:01,15.0884592,0.0001246,53.2153,207.4093,86.8374,273.2761,0.00019565,2.828e-05,0.0,0 STARLINK-4710,1 53799U 22111AC  24170.79515069  .00002828  00000-0  19565-3 0  9995,2 53799  53.2153 207.4093 0001246  86.8374 273.2761 15.08845920 98870,6917.862,95.437,540.589,538.865,0.0
53799.0,STARLINK-4710,PAYLOAD,2024-06-19 09:23:30,15.08829186,0.0001353,53.2179,204.736,89.7205,270.3943,9.2776e-05,1.189e-05,0.0,0 STARLINK-4710,1 53799U 22111AC  24171.39132482  .00001189  00000-0  92776-4 0  9991,2 53799  53.2179 204.7360 0001353  89.7205 270.3943 15.08829186 98156,6917.913,95.438,540.714,538.842,0.0
53799.0,STARLINK-4710,PAYLOAD,2024-06-20 01:17:20,15.08844261,0.0001256,53.2163,201.7602,94.765,265.3485,0.00016193,2.29e-05,0.0,0 STARLINK-4710,1 53799U 22111AC  24172.05371397  .00002290  00000-0  16193-3 0  9997,2 53799  53.2163 201.7602 0001256  94.7650 265.3485 15.08844261 98254,6917.867,95.437,540.601,538.863,0.0
